{"type":"FeatureCollection","features":[{"type":"Feature","geometry":{"type":"LineString","coordinates":[[-46.632877,-23.550075],[-46.632814,-23.549472],[-46.633057,-23.549500],[-46.633092,-23.549501],[-46.633111,-23.549498],[-46.633126,-23.549488],[-46.633186,-23.549439],[-46.633317,-23.549321],[-46.633511,-23.549152],[-46.633588,-23.549091],[-46.633657,-23.549035],[-46.633698,-23.549156],[-46.633736,-23.549266],[-46.633902,-23.549645],[-46.634073,-23.549993],[-46.634111,-23.550072],[-46.634223,-23.550288],[-46.634339,-23.550537],[-46.634356,-23.550572],[-46.634433,-23.550729],[-46.634445,-23.550754],[-46.634488,-23.550842],[-46.634588,-23.550807],[-46.634794,-23.550735],[-46.635091,-23.550632],[-46.635201,-23.550593],[-46.635293,-23.550560],[-46.635398,-23.550524],[-46.635583,-23.550459],[-46.636444,-23.550159],[-46.636536,-23.550133],[-46.636701,-23.550523],[-46.636740,-23.550616],[-46.636782,-23.550702],[-46.636966,-23.551048],[-46.637016,-23.551142],[-46.637019,-23.551149],[-46.637097,-23.551297],[-46.637296,-23.551666],[-46.637391,-23.551836],[-46.637459,-23.551969],[-46.637619,-23.552262],[-46.637635,-23.552292],[-46.637704,-23.552424],[-46.637760,-23.552520],[-46.637830,-23.552656],[-46.637867,-23.552726],[-46.637919,-23.552816],[-46.638284,-23.553465],[-46.638377,-23.553631],[-46.638693,-23.554193],[-46.638706,-23.554216],[-46.638732,-23.554262],[-46.638784,-23.554355],[-46.638913,-23.554591],[-46.639128,-23.554982],[-46.639251,-23.555202],[-46.639426,-23.555515],[-46.639475,-23.555603],[-46.639495,-23.555641],[-46.639532,-23.555712],[-46.639605,-23.555846],[-46.639675,-23.555980],[-46.639679,-23.555988],[-46.639803,-23.556222],[-46.639834,-23.556275],[-46.639878,-23.556346],[-46.639976,-23.556482],[-46.640089,-23.556607],[-46.640314,-23.556856],[-46.640497,-23.557076],[-46.640567,-23.557155],[-46.640582,-23.557172],[-46.640684,-23.557293],[-46.640887,-23.557533],[-46.641471,-23.558228],[-46.641527,-23.558291],[-46.641606,-23.558383],[-46.642099,-23.558958],[-46.642267,-23.559154],[-46.642411,-23.559322],[-46.642547,-23.559481],[-46.642580,-23.559519],[-46.642687,-23.559644],[-46.642960,-23.559963],[-46.643049,-23.560067],[-46.643419,-23.560500],[-46.643753,-23.560890],[-46.643818,-23.560966],[-46.643974,-23.561149],[-46.644344,-23.561584],[-46.644355,-23.561598],[-46.644391,-23.561640],[-46.644418,-23.561673],[-46.644458,-23.561720],[-46.644513,-23.561785],[-46.644594,-23.561880],[-46.644831,-23.562159],[-46.644992,-23.562350],[-46.645018,-23.562379],[-46.645226,-23.562613],[-46.645495,-23.562943],[-46.645572,-23.563033],[-46.645633,-23.563104],[-46.645820,-23.563330],[-46.645916,-23.563439],[-46.645934,-23.563463],[-46.646049,-23.563596],[-46.646148,-23.563718],[-46.646367,-23.563986],[-46.646616,-23.564258],[-46.646939,-23.564632],[-46.647333,-23.565086],[-46.647524,-23.565337],[-46.647555,-23.565385],[-46.647580,-23.565419],[-46.647623,-23.565479],[-46.647671,-23.565546],[-46.647843,-23.565793],[-46.647937,-23.565928],[-46.647945,-23.565937],[-46.648053,-23.566092],[-46.648203,-23.566307],[-46.648264,-23.566393],[-46.648308,-23.566461],[-46.648389,-23.566396],[-46.649174,-23.565734],[-46.649271,-23.565653],[-46.649759,-23.565244],[-46.649861,-23.565160],[-46.649955,-23.565080],[-46.649970,-23.565068],[-46.650369,-23.564747],[-46.650675,-23.564501],[-46.651257,-23.564032],[-46.651334,-23.563969],[-46.651421,-23.563903],[-46.651987,-23.563428],[-46.652051,-23.563376],[-46.652091,-23.563341],[-46.652120,-23.563316],[-46.652133,-23.563305],[-46.652151,-23.563290],[-46.652185,-23.563262],[-46.652551,-23.562949],[-46.652561,-23.562940],[-46.652723,-23.562802],[-46.652832,-23.562709],[-46.652903,-23.562785],[-46.653563,-23.563494],[-46.653707,-23.563655],[-46.653942,-23.563459],[-46.653979,-23.563427],[-46.654499,-23.563006],[-46.654499,-23.563006]]},"properties":{"name":"Trecho 1","segment_index":0,"distance_km":3.66,"duration_min":7.3,"stroke":"#4E79A7","stroke-width":5,"stroke-opacity":0.9}},{"type":"Feature","geometry":{"type":"LineString","coordinates":[[-46.654503,-23.563002],[-46.654827,-23.562728],[-46.655040,-23.562559],[-46.654897,-23.562441],[-46.654414,-23.562054],[-46.654340,-23.561996],[-46.654077,-23.561770],[-46.654030,-23.561691],[-46.653989,-23.561586],[-46.653944,-23.561484],[-46.653895,-23.561392],[-46.653717,-23.561063],[-46.653491,-23.560616],[-46.653331,-23.560324],[-46.653057,-23.559826],[-46.652935,-23.559605],[-46.652879,-23.559521],[-46.652817,-23.559456],[-46.652713,-23.559366],[-46.652469,-23.559224],[-46.652437,-23.559206],[-46.651820,-23.558878],[-46.651680,-23.558804],[-46.651667,-23.558983],[-46.651673,-23.559109],[-46.651704,-23.559792],[-46.651712,-23.560106],[-46.651722,-23.560328],[-46.651731,-23.560683],[-46.651773,-23.561359],[-46.651782,-23.561493],[-46.651978,-23.561714],[-46.652049,-23.561795],[-46.652759,-23.562623],[-46.652832,-23.562709],[-46.652903,-23.562785],[-46.653563,-23.563494],[-46.653707,-23.563655],[-46.653761,-23.563703],[-46.653819,-23.563756],[-46.653686,-23.563866],[-46.653610,-23.563930],[-46.653418,-23.564084],[-46.652790,-23.564615],[-46.652650,-23.564729],[-46.652332,-23.564987],[-46.652029,-23.565249],[-46.651325,-23.565829],[-46.650882,-23.566194],[-46.650705,-23.566340],[-46.650668,-23.566371],[-46.650620,-23.566410],[-46.650129,-23.566816],[-46.650079,-23.566857],[-46.650004,-23.566920],[-46.649995,-23.566927],[-46.649548,-23.567311],[-46.649314,-23.567507],[-46.649140,-23.567650],[-46.649056,-23.567716],[-46.648930,-23.567808],[-46.648746,-23.567945],[-46.648519,-23.568120],[-46.648244,-23.568330],[-46.647752,-23.568709],[-46.647511,-23.568889],[-46.647413,-23.568964],[-46.647051,-23.569241],[-46.646784,-23.569445],[-46.646533,-23.569637],[-46.646305,-23.569815],[-46.645657,-23.570309],[-46.644764,-23.570994],[-46.644717,-23.571031],[-46.644383,-23.571292],[-46.644303,-23.571367],[-46.644332,-23.571430],[-46.644362,-23.571499],[-46.644383,-23.571552],[-46.644400,-23.571601],[-46.644408,-23.571636],[-46.644417,-23.571679],[-46.644421,-23.571729],[-46.644423,-23.571764],[-46.644416,-23.571822],[-46.644393,-23.571886],[-46.644122,-23.572532],[-46.644032,-23.572731],[-46.644004,-23.572795],[-46.643843,-23.573139],[-46.643816,-23.573196],[-46.643635,-23.573579],[-46.643600,-23.573653],[-46.643557,-23.573745],[-46.643450,-23.573703],[-46.642671,-23.573386],[-46.642587,-23.573350],[-46.642528,-23.573323],[-46.642458,-23.573295],[-46.642375,-23.573264],[-46.642289,-23.573229],[-46.642019,-23.573119],[-46.641991,-23.573100],[-46.641941,-23.573037],[-46.641838,-23.573085],[-46.641808,-23.573096],[-46.641617,-23.573166],[-46.640660,-23.573508],[-46.640654,-23.573510],[-46.640616,-23.573546],[-46.640559,-23.573586],[-46.640519,-23.573618],[-46.640491,-23.573647],[-46.640464,-23.573678],[-46.640444,-23.573706],[-46.640386,-23.573799],[-46.640441,-23.573997],[-46.640482,-23.574057],[-46.640503,-23.574084],[-46.640530,-23.574110],[-46.640558,-23.574129],[-46.640593,-23.574147],[-46.640650,-23.574167],[-46.640725,-23.574178],[-46.640766,-23.574169],[-46.640805,-23.574152],[-46.640847,-23.574118],[-46.640887,-23.574065],[-46.640908,-23.573995],[-46.640873,-23.573538],[-46.640869,-23.573494],[-46.640855,-23.573329],[-46.640791,-23.572634],[-46.640761,-23.572316],[-46.640670,-23.570961],[-46.640660,-23.570806],[-46.640650,-23.570678],[-46.640660,-23.570608],[-46.640662,-23.570589],[-46.640682,-23.570526],[-46.640716,-23.570443],[-46.640687,-23.570078],[-46.640573,-23.568505],[-46.640522,-23.567969],[-46.640499,-23.567574],[-46.640510,-23.567112],[-46.640554,-23.566355],[-46.640573,-23.565971],[-46.640577,-23.565752],[-46.640572,-23.565620],[-46.640557,-23.565391],[-46.640525,-23.565153],[-46.640490,-23.564950],[-46.640447,-23.564770],[-46.640331,-23.564347],[-46.640268,-23.564119],[-46.640206,-23.563836],[-46.640121,-23.563398],[-46.640058,-23.563074],[-46.639974,-23.562509],[-46.639952,-23.562295],[-46.639935,-23.562104],[-46.639873,-23.561629],[-46.639818,-23.561345],[-46.639715,-23.560999],[-46.639634,-23.560771],[-46.639471,-23.560409],[-46.639262,-23.560045],[-46.639017,-23.559689],[-46.638795,-23.559366],[-46.638597,-23.559053],[-46.638573,-23.558994],[-46.638256,-23.558210],[-46.637924,-23.557385],[-46.637553,-23.556460],[-46.637326,-23.555895],[-46.637299,-23.555827],[-46.637233,-23.555692],[-46.636996,-23.555077],[-46.636751,-23.554388],[-46.636641,-23.554008],[-46.636578,-23.553647],[-46.636538,-23.553306],[-46.636548,-23.552999],[-46.636561,-23.552925],[-46.636587,-23.552771],[-46.636732,-23.552321],[-46.636843,-23.552088],[-46.636912,-23.551950],[-46.637021,-23.551768],[-46.637202,-23.551500],[-46.637504,-23.551105],[-46.637854,-23.550622],[-46.638075,-23.550298],[-46.638547,-23.549581],[-46.638603,-23.549530],[-46.638714,-23.549328],[-46.638781,-23.549188],[-46.638826,-23.549070],[-46.638848,-23.548932],[-46.638851,-23.548905],[-46.638851,-23.548905]]},"properties":{"name":"Trecho 2","segment_index":1,"distance_km":6.20,"duration_min":10.1,"stroke":"#F28E2B","stroke-width":5,"stroke-opacity":0.9}},{"type":"Feature","geometry":{"type":"LineString","coordinates":[[-46.638851,-23.548905],[-46.638873,-23.548708],[-46.638857,-23.548613],[-46.638828,-23.548533],[-46.638781,-23.548449],[-46.638664,-23.548269],[-46.637874,-23.547094],[-46.637696,-23.546897],[-46.637666,-23.546868],[-46.637561,-23.546729],[-46.637262,-23.546323],[-46.637038,-23.545995],[-46.636293,-23.544905],[-46.635765,-23.544093],[-46.635337,-23.543399],[-46.634480,-23.541996],[-46.634395,-23.541848],[-46.634211,-23.541554],[-46.634131,-23.541427],[-46.633951,-23.541312],[-46.633838,-23.541221],[-46.633739,-23.541159],[-46.633255,-23.540853],[-46.633077,-23.540757],[-46.633014,-23.540734],[-46.632911,-23.540716],[-46.632743,-23.540688],[-46.632582,-23.540661],[-46.632414,-23.540633],[-46.632308,-23.540615],[-46.632207,-23.540598],[-46.632115,-23.540582],[-46.632120,-23.540756],[-46.632133,-23.541183],[-46.632141,-23.541443],[-46.632193,-23.541837],[-46.632204,-23.541917],[-46.632216,-23.541985],[-46.632225,-23.542043],[-46.632348,-23.542718],[-46.632362,-23.542797],[-46.632482,-23.543445],[-46.632501,-23.543544],[-46.632518,-23.543636],[-46.632568,-23.543967],[-46.632595,-23.544141],[-46.632598,-23.544159],[-46.632618,-23.544282],[-46.632590,-23.544341],[-46.632481,-23.544562],[-46.632269,-23.545037],[-46.632099,-23.545419],[-46.631931,-23.545787],[-46.631881,-23.545898],[-46.631795,-23.545804],[-46.631617,-23.545588],[-46.631536,-23.545508],[-46.631506,-23.545484],[-46.631462,-23.545466],[-46.631452,-23.545463],[-46.631435,-23.545461],[-46.631409,-23.545462],[-46.631371,-23.545466],[-46.631336,-23.545481],[-46.631301,-23.545512],[-46.631269,-23.545549],[-46.631236,-23.545594],[-46.631203,-23.545644],[-46.631223,-23.545928],[-46.631221,-23.545945],[-46.631205,-23.546098],[-46.631165,-23.546276],[-46.631083,-23.546540],[-46.630980,-23.546742],[-46.630337,-23.547660],[-46.630236,-23.547805],[-46.629926,-23.548251],[-46.629812,-23.548405],[-46.629710,-23.548556],[-46.629404,-23.548957],[-46.629336,-23.549065],[-46.629409,-23.549145],[-46.629551,-23.549239],[-46.629723,-23.549326],[-46.630610,-23.549698],[-46.630792,-23.549774],[-46.630828,-23.549702],[-46.631038,-23.549264],[-46.631146,-23.549277],[-46.631501,-23.549318],[-46.631999,-23.549376],[-46.632090,-23.549387],[-46.632164,-23.549396],[-46.632814,-23.549472],[-46.632877,-23.550075],[-46.632877,-23.550075]]},"properties":{"name":"Trecho 3","segment_index":2,"distance_km":2.82,"duration_min":5.5,"stroke":"#E15759","stroke-width":5,"stroke-opacity":0.9}},{"type":"Feature","geometry":{"type":"Point","coordinates":[-46.633300,-23.550500]},"properties":{"name":"Parada #0","sequence_index":0,"marker-color":"#e63946","marker-size":"large","marker-symbol":"0"}},{"type":"Feature","geometry":{"type":"Point","coordinates":[-46.654400,-23.562900]},"properties":{"name":"Parada #1","sequence_index":1,"marker-color":"#457b9d","marker-size":"large","marker-symbol":"1"}},{"type":"Feature","geometry":{"type":"Point","coordinates":[-46.638800,-23.548900]},"properties":{"name":"Parada #2","sequence_index":2,"marker-color":"#2a9d8f","marker-size":"large","marker-symbol":"2"}}]}